ONEWEB-0156             
1 48052U 21025L   24181.83002584 -.00000209  00000+0 -60732-3 0  9998
2 48052  87.8930 102.9995 0001962  79.1360 280.9990 13.13471716159405
ONEWEB-0161             
1 48053U 21025M   24181.80305489 -.00000296  00000+0 -84479-3 0  9996
2 48053  87.8937 103.0125 0001835  74.1247 286.0084 13.13471201159330
ONEWEB-0158             
1 48054U 21025N   24181.84115340  .00000286  00000+0  74878-3 0  9995
2 48054  87.8931 102.9952 0002060  82.2649 277.8714 13.13469792159462
ONEWEB-0157             
1 48055U 21025P   24182.16965358  .00000237  00000+0  61321-3 0  9999
2 48055  87.8931 102.9448 0001780  79.9331 280.1999 13.13472259159455
ONEWEB-0162             
1 48056U 21025Q   24182.20934086  .00000016  00000+0  99586-5 0  9990
2 48056  87.8928 102.9322 0001957  80.1048 280.0302 13.13472306159403
ONEWEB-0155             
1 48057U 21025R   24182.22997911  .00000941  00000+0  25425-2 0  9994
2 48057  87.8929 102.9388 0001742  61.9407 298.1898 13.13467045159577
ONEWEB-0149             
1 48058U 21025S   24181.79353504 -.00000031  00000+0 -11941-3 0  9991
2 48058  87.8931 103.0221 0001866  85.1419 274.9923 13.13471142159313
ONEWEB-0148             
1 48059U 21025T   24181.83478495  .00000663  00000+0  17814-2 0  9997
2 48059  87.8932 103.0243 0001452  98.0562 262.0732 13.13468498159442
ONEWEB-0160             
1 48060U 21025U   24181.85067727  .00000343  00000+0  90415-3 0  9997
2 48060  87.8935 103.0173 0002917  84.1983 275.9478 13.13469074159394
ONEWEB-0163             
1 48061U 21025V   24181.83637665  .00000134  00000+0  33094-3 0  9998
2 48061  87.8930 103.0121 0001690  75.3055 284.8262 13.13469120159518
ONEWEB-0159             
1 48062U 21025W   24182.20614957 -.00000320  00000+0 -90996-3 0  9993
2 48062  87.8930 102.9217 0001787  80.8500 279.2831 13.13470261159480
ONEWEB-0164             
1 48063U 21025X   24181.80782401 -.00000318  00000+0 -90653-3 0  9996
2 48063  87.8932 103.0110 0002080  75.9028 284.2332 13.13470123159416
ONEWEB-0167             
1 48064U 21025Y   24182.21805212 -.00000152  00000+0 -45163-3 0  9991
2 48064  87.8930 102.9416 0001799  76.7141 283.4189 13.13470550159452
ONEWEB-0166             
1 48065U 21025Z   24182.16330777  .00000405  00000+0  10753-2 0  9990
2 48065  87.8929 102.9356 0001873  83.7733 276.3609 13.13472548159527
ONEWEB-0151             
1 48066U 21025AA  24182.16491393  .00000347  00000+0  91455-3 0  9997
2 48066  87.8931 102.9490 0002077  74.7758 285.3600 13.13470904159473
ONEWEB-0170             
1 48067U 21025AB  24181.79195102  .00000013  00000+0 -13535-6 0  9992
2 48067  87.8931 103.0255 0002564  70.9402 289.2004 13.13468303159370
ONEWEB-0168             
1 48068U 21025AC  24182.15854985  .00000393  00000+0  10406-2 0  9995
2 48068  87.8933 102.9227 0001919  78.2942 281.8402 13.13471927159436
ONEWEB-0173             
1 48069U 21025AD  24181.84589967  .00000349  00000+0  92101-3 0  9990
2 48069  87.8933 102.9949 0001763  65.7841 294.3473 13.13468413159639
ONEWEB-0171             
1 48070U 21025AE  24182.18711090 -.00000155  00000+0 -45903-3 0  9999
2 48070  87.8936 102.9627 0002002  74.9387 285.1963 13.13468524159490
ONEWEB-0172             
1 48071U 21025AF  24182.16648228  .00000327  00000+0  85959-3 0  9994
2 48071  87.8936 102.9334 0001949  72.4770 287.6572 13.13472144160380
ONEWEB-0174             
1 48072U 21025AG  24181.84431982  .00000308  00000+0  80838-3 0  9996
2 48072  87.8934 103.0116 0001891  81.9593 278.1750 13.13472080159664
ONEWEB-0175             
1 48073U 21025AH  24181.87288616 -.00000165  00000+0 -48602-3 0  9990
2 48073  87.8929 102.9938 0002239  70.0465 290.0905 13.13467599159320
ONEWEB-0177             
1 48074U 21025AJ  24181.80943225  .00002007  00000+0  54614-2 0  9992
2 48074  87.8929 103.0142 0001450  75.2670 284.8620 13.13460022159508
ONEWEB-0178             
1 48075U 21025AK  24182.20787640 -.00000131  00000+0 -39367-3 0  9992
2 48075  87.8937 102.9536 0001781  76.1887 283.9440 13.13471957159600
ONEWEB-0108             
1 48076U 21025AL  24182.16807595  .00000266  00000+0  69453-3 0  9996
2 48076  87.8931 102.9405 0002092  84.4835 275.6533 13.13468610159536
ONEWEB-0169             
1 48077U 21025AM  24182.19981039 -.00000163  00000+0 -48014-3 0  9994
2 48077  87.8932 102.9441 0002079  85.0523 275.0843 13.13471658159426
ONEWEB-0176             
1 48210U 21031A   24181.69274038  .00000153  00000+0  37930-3 0  9990
2 48210  87.8962  72.4425 0001844  77.5590 282.5746 13.14505378154057
ONEWEB-0184             
1 48211U 21031B   24182.19860404 -.00000344  00000+0 -96148-3 0  9995
2 48211  87.8955  72.3247 0002445  55.0834 305.0525 13.14502618154095
ONEWEB-0179             
1 48212U 21031C   24181.94012513 -.00000025  00000+0 -10313-3 0  9994
2 48212  87.8962  72.3800 0001769  77.6577 282.4751 13.14501477154104
ONEWEB-0180             
1 48213U 21031D   24182.20177341 -.00000258  00000+0 -73097-3 0  9992
2 48213  87.8956  72.3253 0001676  77.1849 282.9468 13.14502840154020
ONEWEB-0218             
1 48214U 21031E   24181.76728404  .00000245  00000+0  62664-3 0  9997
2 48214  87.8958  72.4138 0002171  47.3355 312.7957 13.14502119154123
ONEWEB-0209             
1 48215U 21031F   24181.75618162  .00000223  00000+0  56741-3 0  9991
2 48215  87.8959  72.4501 0001677  77.8184 282.3133 13.14502406154124
ONEWEB-0198             
1 48216U 21031G   24182.19702900 -.00000075  00000+0 -23650-3 0  9995
2 48216  87.8958  72.3668 0001758  65.4760 294.6552 13.14502821154278
ONEWEB-0189             
1 48217U 21031H   24181.75299753  .00002316  00000+0  62120-2 0  9996
2 48217  87.8958  72.4309 0001667  67.0093 293.1213 13.14494562153974
ONEWEB-0196             
1 48218U 21031J   24182.18752345 -.00000183  00000+0 -52784-3 0  9994
2 48218  87.8961  72.3482 0001894  76.2860 283.8480 13.14504545154028
ONEWEB-0183             
1 48219U 21031K   24181.93379660  .00000113  00000+0  27042-3 0  9992
2 48219  87.8962  72.4153 0001732  80.7311 279.4015 13.14499891154097
ONEWEB-0185             
1 48220U 21031L   24182.18829579 -.00000396  00000+0 -11025-2 0  9999
2 48220  87.8959  72.3362 0001707  80.5318 279.6004 13.14502568154055
ONEWEB-0187             
1 48221U 21031M   24182.15816945 -.00000096  00000+0 -29394-3 0  9996
2 48221  87.8960  72.3756 0001725  79.2813 280.8511 13.14503452154061
ONEWEB-0192             
1 48222U 21031N   24182.21446102  .00000262  00000+0  67199-3 0  9996
2 48222  87.8959  72.3615 0001825  73.7846 286.3484 13.14512472153993
ONEWEB-0219             
1 48223U 21031P   24182.19384827 -.00000082  00000+0 -25474-3 0  9991
2 48223  87.8960  72.3396 0001677  77.8903 282.2415 13.14506172154198
ONEWEB-0202             
1 48224U 21031Q   24181.71811365 -.00000521  00000+0 -14392-2 0  9995
2 48224  87.8959  72.4536 0001805  50.7295 309.3995 13.14502311154107
ONEWEB-0204             
1 48225U 21031R   24181.75220409 -.00000044  00000+0 -15247-3 0  9994
2 48225  87.8958  72.4590 0001890  91.0918 269.0428 13.14504184154003
ONEWEB-0205             
1 48226U 21031S   24181.72762703 -.00000520  00000+0 -14378-2 0  9992
2 48226  87.8959  72.4348 0001678  77.0909 283.0408 13.14502781154010
ONEWEB-0206             
1 48227U 21031T   24181.92902551  .00000055  00000+0  11306-3 0  9992
2 48227  87.8958  72.3840 0001639  80.6269 279.5046 13.14501947153999
ONEWEB-0182             
1 48228U 21031U   24181.92426335  .00000216  00000+0  54802-3 0  9991
2 48228  87.8961  72.4128 0001862  83.8981 276.2361 13.14505111154204
ONEWEB-0186             
1 48229U 21031V   24181.93537403  .00000053  00000+0  10772-3 0  9999
2 48229  87.8961  72.3743 0001857  76.3891 283.7446 13.14501837154150
ONEWEB-0181             
1 48230U 21031W   24181.76092837 -.00000079  00000+0 -24678-3 0  9999
2 48230  87.8956  72.4788 0002065  75.2905 284.8453 13.14505696153989
ONEWEB-0188             
1 48231U 21031X   24181.95123186 -.00000154  00000+0 -45083-3 0  9990
2 48231  87.8961  72.4361 0001814  78.7163 281.4170 13.14502666153914
ONEWEB-0220             
1 48232U 21031Y   24181.68639324 -.00001582  00000+0 -43019-2 0  9999
2 48232  87.8953  72.4530 0001529  78.3202 281.8099 13.14511053154147
ONEWEB-0165             
1 48233U 21031Z   24181.71493940 -.00000159  00000+0 -46297-3 0  9997
2 48233  87.8961  72.4646 0001737  73.5536 286.5784 13.14504643154109
ONEWEB-0199             
1 48234U 21031AA  24181.92744712  .00000155  00000+0  38473-3 0  9998
2 48234  87.8960  72.3919 0002081  78.9068 281.2296 13.14501774154037
ONEWEB-0203             
1 48235U 21031AB  24182.14628401  .00000281  00000+0  72360-3 0  9993
2 48235  87.8958  72.3496 0002303  71.5012 288.6368 13.14505825154076
ONEWEB-0197             
1 48236U 21031AC  24181.74110492 -.00000061  00000+0 -19892-3 0  9994
2 48236  87.8959  72.4389 0001872  90.1985 269.9359 13.14505559153936
ONEWEB-0194             
1 48237U 21031AD  24181.94805778 -.00000149  00000+0 -43606-3 0  9992
2 48237  87.8963  72.3908 0002162  77.0332 283.1039 13.14501205154131
ONEWEB-0193             
1 48238U 21031AE  24182.19226106 -.00000347  00000+0 -97156-3 0  9992
2 48238  87.8960  72.3501 0001929  74.5142 285.6201 13.14502807154114
ONEWEB-0191             
1 48239U 21031AF  24182.20335969 -.00000103  00000+0 -31314-3 0  9997
2 48239  87.8954  72.3311 0001888  75.8475 284.2865 13.14504491153979
ONEWEB-0195             
1 48240U 21031AG  24181.95201815 -.00000139  00000+0 -40874-3 0  9992
2 48240  87.8958  72.3805 0001636  66.7496 293.3806 13.14501498153921
ONEWEB-0201             
1 48241U 21031AH  24182.16926965  .00000047  00000+0  92214-4 0  9999
2 48241  87.8961  72.3723 0001770  75.4502 284.6824 13.14504889154188
ONEWEB-0207             
1 48242U 21031AJ  24182.14866440  .00000278  00000+0  71634-3 0  9997
2 48242  87.8960  72.3422 0001703  85.4578 274.6746 13.14501764154095
